{
    "links": {
        "self": "http://www.neowsapp.com/rest/v1/neo/3440792?api_key=iIulBulltgU6a56xZRHN4H3l9WmuAYTsLGpBGhQ2"
    },
    "id": "3440792",
    "neo_reference_id": "3440792",
    "name": "(2008 WJ96)",
    "designation": "2008 WJ96",
    "nasa_jpl_url": "http://ssd.jpl.nasa.gov/sbdb.cgi?sstr=3440792",
    "absolute_magnitude_h": 25.6,
    "estimated_diameter": {
        "kilometers": {
            "estimated_diameter_min": 0.0201629919,
            "estimated_diameter_max": 0.0450858206
        },
        "meters": {
            "estimated_diameter_min": 20.1629919443,
            "estimated_diameter_max": 45.0858206172
        },
        "miles": {
            "estimated_diameter_min": 0.0125286985,
            "estimated_diameter_max": 0.0280150214
        },
        "feet": {
            "estimated_diameter_min": 66.1515504905,
            "estimated_diameter_max": 147.9193637137
        }
    },
    "is_potentially_hazardous_asteroid": false,
    "close_approach_data": [
        {
            "close_approach_date": "2008-12-18",
            "close_approach_date_full": "2008-Dec-18 03:13",
            "epoch_date_close_approach": 1229569980000,
            "relative_velocity": {
                "kilometers_per_second": "8.9386954234",
                "kilometers_per_hour": "32179.3035241715",
                "miles_per_hour": "19994.9677925609"
            },
            "miss_distance": {
                "astronomical": "0.0531280352",
                "lunar": "20.6668056928",
                "kilometers": "7947840.903205024",
                "miles": "4938559.3332123712"
            },
            "orbiting_body": "Earth"
        }
    ],
    "orbital_data": {
        "orbit_id": "10",
        "orbit_determination_date": "2017-04-06 09:02:01",
        "first_observation_date": "2008-11-30",
        "last_observation_date": "2008-12-22",
        "data_arc_in_days": 22,
        "observations_used": 19,
        "orbit_uncertainty": "8",
        "minimum_orbit_intersection": ".0252597",
        "jupiter_tisserand_invariant": "3.230",
        "epoch_osculation": "2454806.5",
        "eccentricity": ".5932940261373423",
        "semi_major_axis": "2.447154950336645",
        "inclination": "2.022167117590482",
        "ascending_node_longitude": "247.275293550058",
        "orbital_period": "1398.268681978567",
        "perihelion_distance": ".9952725372694891",
        "perihelion_argument": "222.7524116086745",
        "aphelion_distance": "3.899037363403801",
        "perihelion_time": "2454836.162484246467",
        "mean_anomaly": "352.3630597850351",
        "mean_motion": ".2574612480704322",
        "equinox": "J2000",
        "orbit_class": {
            "orbit_class_type": "APO",
            "orbit_class_description": "Near-Earth asteroid orbits which cross the Earth’s orbit similar to that of 1862 Apollo",
            "orbit_class_range": "a (semi-major axis) > 1.0 AU; q (perihelion) < 1.017 AU"
        }
    },
    "is_sentry_object": false
}